COSMOS 2433 (720)       
1 32275U 07052A   24244.30030624 -.00000090  00000+0  00000+0 0  9995
2 32275  65.9051 337.8855 0004265 222.0292 137.9728  2.13104195131101
COSMOS 2432 (719)       
1 32276U 07052B   24242.03109093 -.00000096  00000+0  00000+0 0  9997
2 32276  65.9213 338.0764 0008331 316.0969  49.0438  2.13103187131085
COSMOS 2434 (721)       
1 32393U 07065A   24244.44125385  .00000012  00000+0  00000+0 0  9997
2 32393  64.3214 214.0242 0000482  27.6213 332.8108  2.13101328129820
COSMOS 2436 (723)       
1 32395U 07065C   24244.48441660  .00000011  00000+0  00000+0 0  9999
2 32395  64.3298 214.0880 0016322 354.1146 174.5342  2.13100123129772
COSMOS 2456 (730)       
1 36111U 09070A   24244.70882889  .00000031  00000+0  00000+0 0  9996
2 36111  64.6463  93.3651 0002179 339.6457  20.0106  2.13103899114513
COSMOS 2457 (733)       
1 36112U 09070B   24244.33020244  .00000029  00000+0  00000+0 0  9992
2 36112  64.6310  93.2352 0005547 140.7032  61.9210  2.13101338114475
COSMOS 2460 (732)       
1 36402U 10007C   24244.13138118 -.00000089  00000+0  00000+0 0  9991
2 36402  65.7602 336.5438 0001647 193.8879 209.0517  2.13106324112772
COSMOS 2476 (744)       
1 37867U 11064A   24243.14932769  .00000019  00000+0  00000+0 0  9997
2 37867  64.9176  95.0812 0021531 232.4717 283.0379  2.13101675 99780
COSMOS 2477 (745)       
1 37868U 11064B   24244.38077456  .00000029  00000+0  00000+0 0  9999
2 37868  64.9250  95.1126 0018695 232.7919 325.9218  2.13103187 99808
COSMOS 2475 (743)       
1 37869U 11064C   24243.93035280  .00000026  00000+0  00000+0 0  9996
2 37869  64.9317  95.1433 0023200 249.8240 281.4230  2.13101979 99793
COSMOS 2485 (747)       
1 39155U 13019A   24244.29637043  .00000029  00000+0  00000+0 0  9996
2 39155  65.0749  95.6423 0021980 228.2920 131.6089  2.13101929 88327
COSMOS 2492 (754)       
1 39620U 14012A   24244.25156402 -.00000088  00000+0  00000+0 0  9994
2 39620  65.6413 336.1060 0011469 313.2340  46.7077  2.13103226 81283
COSMOS 2500 (755)       
1 40001U 14032A   24243.49142846 -.00000090  00000+0  00000+0 0  9996
2 40001  65.5787 335.9309 0008443 200.5535 159.4480  2.13106009 79487
COSMOS 2501 (702K)      
1 40315U 14075A   24243.27608563  .00000023  00000+0  00000+0 0  9995
2 40315  63.6225 213.1001 0020792 211.0354 148.8242  2.13101418 75870
COSMOS 2514 (751)       
1 41330U 16008A   24244.19738148 -.00000087  00000+0  00000+0 0  9997
2 41330  65.3726 335.3974 0012319 208.1778 151.7939  2.13102645 66668
COSMOS 2522 (752)       
1 42939U 17055A   24244.50659955  .00000011  00000+0  00000+0 0  9995
2 42939  64.0836 214.1913 0009879 241.5519 118.3269  2.13101987 54020
COSMOS 2527 (756)       
1 43508U 18053A   24243.52755759  .00000023  00000+0  00000+0 0  9990
2 43508  65.2345  95.8357 0007112 218.6575 141.3789  2.13102368 48303
COSMOS 2529 (757)       
1 43687U 18086A   24244.09540838  .00000016  00000+0  00000+0 0  9999
2 43687  64.2991 214.7381 0011319 260.0402  99.8126  2.13102019 45324
COSMOS 2534 (758)       
1 44299U 19030A   24242.11978162  .00000044  00000+0  00000+0 0  9996
2 44299  64.3725 214.7652 0013265 279.4128 139.0476  2.13102046 40928
COSMOS 2544 (759)       
1 44850U 19088A   24243.94091851  .00000027  00000+0  00000+0 0  9996
2 44850  65.2213  95.6574 0011481 250.9220 109.0421  2.13102169 36756
COSMOS 2545 (760)       
1 45358U 20018A   24244.13770733 -.00000088  00000+0  00000+0 0  9998
2 45358  64.7121 335.3492 0010585 236.9503 122.9863  2.13102582 34703
COSMOS 2547 (705K)      
1 46805U 20075A   24241.97817226  .00000046  00000+0  00000+0 0  9990
2 46805  64.6015 214.4332 0008696 241.7945 118.1069  2.13102849 29903
COSMOS 2557 (706K)      
1 52984U 22075A   24243.55153495 -.00000093  00000+0  00000+0 0  9997
2 52984  64.6410 337.4929 0012150 273.5474  86.3470  2.13102342 16743
COSMOS 2559 (707K)      
1 54031U 22130A   24244.43319346 -.00000090  00000+0  00000+0 0  9998
2 54031  64.6124 337.5770 0007622 218.7624 141.2186  2.13101636 14738
COSMOS 2564 (761)       
1 54377U 22161A   24244.62371474  .00000011  00000+0  00000+0 0  9998
2 54377  64.7428 214.4628 0011118 224.7360 135.1529  2.13102137 13686
COSMOS 2569 (703K)      
1 57517U 23114A   24244.17140681  .00000028  00000+0  00000+0 0  9998
2 57517  64.9494  94.7719 0009010 296.4334  63.5628  2.13103921  8304
